{
    "links": {
        "self": "http://www.neowsapp.com/rest/v1/neo/3291165?api_key=iIulBulltgU6a56xZRHN4H3l9WmuAYTsLGpBGhQ2"
    },
    "id": "3291165",
    "neo_reference_id": "3291165",
    "name": "(2005 SR4)",
    "designation": "2005 SR4",
    "nasa_jpl_url": "http://ssd.jpl.nasa.gov/sbdb.cgi?sstr=3291165",
    "absolute_magnitude_h": 23.5,
    "estimated_diameter": {
        "kilometers": {
            "estimated_diameter_min": 0.0530340723,
            "estimated_diameter_max": 0.1185877909
        },
        "meters": {
            "estimated_diameter_min": 53.0340723319,
            "estimated_diameter_max": 118.5877908577
        },
        "miles": {
            "estimated_diameter_min": 0.0329538346,
            "estimated_diameter_max": 0.0736870142
        },
        "feet": {
            "estimated_diameter_min": 173.9963058693,
            "estimated_diameter_max": 389.0675677576
        }
    },
    "is_potentially_hazardous_asteroid": false,
    "close_approach_data": [
        {
            "close_approach_date": "2005-08-23",
            "close_approach_date_full": "2005-Aug-23 07:26",
            "epoch_date_close_approach": 1124781960000,
            "relative_velocity": {
                "kilometers_per_second": "5.6765322064",
                "kilometers_per_hour": "20435.5159430794",
                "miles_per_hour": "12697.8348925207"
            },
            "miss_distance": {
                "astronomical": "0.1760164304",
                "lunar": "68.4703914256",
                "kilometers": "26331683.072843248",
                "miles": "16361749.1570749024"
            },
            "orbiting_body": "Earth"
        }
    ],
    "orbital_data": {
        "orbit_id": "10",
        "orbit_determination_date": "2017-04-06 09:10:27",
        "first_observation_date": "2005-09-24",
        "last_observation_date": "2005-10-23",
        "data_arc_in_days": 29,
        "observations_used": 22,
        "orbit_uncertainty": "7",
        "minimum_orbit_intersection": ".149441",
        "jupiter_tisserand_invariant": "3.514",
        "epoch_osculation": "2459000.5",
        "eccentricity": ".474075290776397",
        "semi_major_axis": "2.185589236663375",
        "inclination": "6.83156870979475",
        "ascending_node_longitude": "357.7175871844082",
        "orbital_period": "1180.188128429154",
        "perihelion_distance": "1.149455383774422",
        "perihelion_argument": "333.0009634252436",
        "aphelion_distance": "3.221723089552328",
        "perihelion_time": "2459502.048209315869",
        "mean_anomaly": "207.0096834527245",
        "mean_motion": ".3050361135890806",
        "equinox": "J2000",
        "orbit_class": {
            "orbit_class_type": "AMO",
            "orbit_class_description": "Near-Earth asteroid orbits similar to that of 1221 Amor",
            "orbit_class_range": "1.017 AU < q (perihelion) < 1.3 AU"
        }
    },
    "is_sentry_object": false
}